NORAD_CAT_ID,OBJECT_NAME,OBJECT_TYPE,EPOCH,MEAN_MOTION,ECCENTRICITY,INCLINATION,RA_OF_ASC_NODE,ARG_OF_PERICENTER,MEAN_ANOMALY,BSTAR,MEAN_MOTION_DOT,MEAN_MOTION_DDOT,TLE_LINE0,TLE_LINE1,TLE_LINE2,SEMIMAJOR_AXIS,PERIOD,APOGEE,PERIGEE,DECAYED
51724.0,STARLINK-3529,PAYLOAD,2023-08-26 00:11:14,15.08840049,0.0001522,53.2179,169.1539,80.0717,280.0446,2.5747e-05,1.22e-06,0.0,0 STARLINK-3529,1 51724U 22016L   23238.00780602  .00000122  00000-0  25747-4 0  9995,2 51724  53.2179 169.1539 0001522  80.0717 280.0446 15.08840049 84583,6917.88,95.438,540.798,538.692,0.0
51724.0,STARLINK-3529,PAYLOAD,2023-08-26 04:57:23,15.08847794,0.0001314,53.2176,168.2619,99.2956,260.8184,6.8513e-05,8.03e-06,0.0,0 STARLINK-3529,1 51724U 22016L   23238.20651858  .00000803  00000-0  68513-4 0  9991,2 51724  53.2176 168.2619 0001314  99.2956 260.8184 15.08847794 84618,6917.857,95.437,540.631,538.813,0.0
51724.0,STARLINK-3529,PAYLOAD,2023-08-27 01:37:24,15.08843677,0.0001581,53.2174,164.3934,94.2459,265.8713,-2.2806e-05,-6.51e-06,0.0,0 STARLINK-3529,1 51724U 22016L   23239.06764386 -.00000651  00000-0 -22806-4 0  9995,2 51724  53.2174 164.3934 0001581  94.2459 265.8713 15.08843677 84745,6917.869,95.437,540.828,538.64,0.0
51724.0,STARLINK-3529,PAYLOAD,2023-08-27 04:48:10,15.08842929,0.0001596,53.2175,163.7998,97.2156,262.9018,-2.8423e-05,-7.4e-06,0.0,0 STARLINK-3529,1 51724U 22016L   23239.20012434 -.00000740  00000-0 -28423-4 0  9991,2 51724  53.2175 163.7998 0001596  97.2156 262.9018 15.08842929 83702,6917.871,95.437,540.841,538.632,0.0
51724.0,STARLINK-3529,PAYLOAD,2023-08-28 04:38:57,15.08839193,0.0001689,53.2181,159.3389,109.0867,251.0308,1.524e-05,-4.6e-07,0.0,0 STARLINK-3529,1 51724U 22016L   23240.19372428 -.00000046  00000-0  15240-4 0  9994,2 51724  53.2181 159.3389 0001689 109.0867 251.0308 15.08839193 84912,6917.883,95.438,540.916,538.579,0.0
51724.0,STARLINK-3529,PAYLOAD,2023-08-28 18:57:26,15.08834193,0.0001568,53.2175,156.6633,104.1908,255.9258,-1.3509e-05,-5.03e-06,0.0,0 STARLINK-3529,1 51724U 22016L   23240.78989019 -.00000503  00000-0 -13509-4 0  9994,2 51724  53.2175 156.6633 0001568 104.1908 255.9258 15.08834193 85008,6917.898,95.438,540.848,538.678,0.0
51724.0,STARLINK-3529,PAYLOAD,2023-08-29 10:51:18,15.08833108,0.0001361,53.2169,153.6924,88.2734,271.8414,-4.8092e-05,-1.053e-05,0.0,0 STARLINK-3529,1 51724U 22016L   23241.45229439 -.00001053  00000-0 -48092-4 0  9998,2 51724  53.2169 153.6924 0001361  88.2734 271.8414 15.08833108 84040,6917.901,95.438,540.708,538.825,0.0
51724.0,STARLINK-3529,PAYLOAD,2023-08-30 02:45:10,15.08830005,0.0001334,53.2172,150.7198,96.7044,263.41,-6.2946e-05,-1.289e-05,0.0,0 STARLINK-3529,1 51724U 22016L   23242.11470203 -.00001289  00000-0 -62946-4 0  9994,2 51724  53.2172 150.7198 0001334  96.7044 263.4100 15.08830005 85204,6917.911,95.438,540.699,538.853,0.0
51724.0,STARLINK-3529,PAYLOAD,2023-08-30 10:42:05,15.08837511,0.0001265,53.217,149.2333,104.0019,256.1113,8.7551e-06,-1.49e-06,0.0,0 STARLINK-3529,1 51724U 22016L   23242.44589497 -.00000149  00000-0  87551-5 0  9999,2 51724  53.2170 149.2333 0001265 104.0019 256.1113 15.08837511 85251,6917.888,95.438,540.628,538.878,0.0
51724.0,STARLINK-3529,PAYLOAD,2023-08-31 02:35:56,15.08845981,0.0001384,53.2169,146.2595,98.1379,261.977,8.5634e-05,1.075e-05,0.0,0 STARLINK-3529,1 51724U 22016L   23243.10828795  .00001075  00000-0  85634-4 0  9997,2 51724  53.2169 146.2595 0001384  98.1379 261.9770 15.08845981 85354,6917.862,95.437,540.685,538.77,0.0
51724.0,STARLINK-3529,PAYLOAD,2023-09-01 10:23:43,15.08758667,7.97e-05,53.2139,140.3173,162.0335,198.0686,-7.8927e-05,-1.541e-05,0.0,0 STARLINK-3529,1 51724U 22016L   23244.43314098 -.00001541  00000-0 -78927-4 0  9997,2 51724  53.2139 140.3173 0000797 162.0335 198.0686 15.08758667 85550,6918.129,95.443,540.545,539.443,0.0
51724.0,STARLINK-3529,PAYLOAD,2023-09-01 16:45:12,15.08836333,0.0001217,53.2166,139.1211,89.2087,270.9044,9.0684e-06,-1.44e-06,0.0,0 STARLINK-3529,1 51724U 22016L   23244.69805678 -.00000144  00000-0  90684-5 0  9996,2 51724  53.2166 139.1211 0001217  89.2087 270.9044 15.08836333 85590,6917.892,95.438,540.599,538.915,0.0
51724.0,STARLINK-3529,PAYLOAD,2023-09-02 02:17:30,15.08845263,0.0001497,53.2165,137.3382,83.0127,277.1036,4.4432e-05,4.19e-06,0.0,0 STARLINK-3529,1 51724U 22016L   23245.09549082  .00000419  00000-0  44432-4 0  9998,2 51724  53.2165 137.3382 0001497  83.0127 277.1036 15.08845263 85654,6917.864,95.437,540.765,538.694,0.0
51724.0,STARLINK-3529,PAYLOAD,2023-09-02 10:14:26,15.0884102,0.0001718,53.2172,135.8506,85.2124,274.9064,3.2452e-05,2.28e-06,0.0,0 STARLINK-3529,1 51724U 22016L   23245.42669395  .00000228  00000-0  32452-4 0  9992,2 51724  53.2172 135.8506 0001718  85.2124 274.9064 15.08841020 84641,6917.877,95.437,540.931,538.554,0.0
51724.0,STARLINK-3529,PAYLOAD,2023-09-03 02:08:17,15.08842074,0.0001526,53.2167,132.878,84.3815,275.7351,-1.3988e-06,-3.1e-06,0.0,0 STARLINK-3529,1 51724U 22016L   23246.08909396 -.00000310  00000-0 -13988-5 0  9991,2 51724  53.2167 132.8780 0001526  84.3815 275.7351 15.08842074 85807,6917.874,95.437,540.795,538.683,0.0
51724.0,STARLINK-3529,PAYLOAD,2023-09-03 10:05:15,15.08818383,0.0001836,53.2168,131.3916,80.2723,279.8476,-0.00016006,-2.833e-05,0.0,0 STARLINK-3529,1 51724U 22016L   23246.42031632 -.00002833  00000-0 -16006-3 0  9992,2 51724  53.2168 131.3916 0001836  80.2723 279.8476 15.08818383 85854,6917.946,95.439,541.082,538.541,0.0
51724.0,STARLINK-3529,PAYLOAD,2023-09-04 01:59:06,15.08829559,0.0001333,53.2173,128.4171,87.6229,272.4916,-7.1531e-05,-1.426e-05,0.0,0 STARLINK-3529,1 51724U 22016L   23247.08271402 -.00001426  00000-0 -71531-4 0  9998,2 51724  53.2173 128.4171 0001333  87.6229 272.4916 15.08829559 85950,6917.912,95.438,540.699,538.855,0.0
51724.0,STARLINK-3529,PAYLOAD,2023-09-05 01:49:54,15.08826818,0.0001363,53.2175,123.9549,96.0527,264.062,-7.641e-05,-1.503e-05,0.0,0 STARLINK-3529,1 51724U 22016L   23248.07632603 -.00001503  00000-0 -76410-4 0  9999,2 51724  53.2175 123.9549 0001363  96.0527 264.0620 15.08826818 85043,6917.921,95.438,540.729,538.843,0.0
51724.0,STARLINK-3529,PAYLOAD,2023-09-06 00:05:15,15.08848515,0.000129,53.2176,119.7941,86.3546,273.7594,0.00018849,2.714e-05,0.0,0 STARLINK-3529,1 51724U 22016L   23249.00365730  .00002714  00000-0  18849-3 0  9991,2 51724  53.2176 119.7941 0001290  86.3546 273.7594 15.08848515 86243,6917.854,95.437,540.612,538.827,0.0
51724.0,STARLINK-3529,PAYLOAD,2023-09-07 01:31:26,15.0884338,0.0001379,53.2178,115.0353,81.4292,278.6856,-5.3583e-06,-3.73e-06,0.0,0 STARLINK-3529,1 51724U 22016L   23250.06350286 -.00000373  00000-0 -53583-5 0  9996,2 51724  53.2178 115.0353 0001379  81.4292 278.6856 15.08843380 86401,6917.87,95.437,540.689,538.781,0.0
51724.0,STARLINK-3529,PAYLOAD,2023-09-07 15:49:54,15.08838273,0.000175,53.2173,112.3587,85.6296,274.4896,-8.4843e-06,-4.23e-06,0.0,0 STARLINK-3529,1 51724U 22016L   23250.65966268 -.00000423  00000-0 -84843-5 0  9993,2 51724  53.2173 112.3587 0001750  85.6296 274.4896 15.08838273 85433,6917.886,95.438,540.961,538.54,0.0
51724.0,STARLINK-3529,PAYLOAD,2023-09-07 23:46:50,15.08847233,0.0001409,53.2166,110.8716,89.0109,271.1044,-9.5073e-05,-1.801e-05,0.0,0 STARLINK-3529,1 51724U 22016L   23250.99085974 -.00001801  00000-0 -95073-4 0  9993,2 51724  53.2166 110.8716 0001409  89.0109 271.1044 15.08847233 85484,6917.858,95.437,540.698,538.749,0.0
51724.0,STARLINK-3529,PAYLOAD,2023-09-08 18:51:28,15.08835991,0.000143,53.2176,107.3027,93.7356,266.38,3.5529e-05,2.77e-06,0.0,0 STARLINK-3529,1 51724U 22016L   23251.78574149  .00000277  00000-0  35529-4 0  9992,2 51724  53.2176 107.3027 0001430  93.7356 266.3800 15.08835991 86666,6917.893,95.438,540.747,538.768,0.0
51724.0,STARLINK-3529,PAYLOAD,2023-09-08 22:02:14,15.08837444,0.0001321,53.2175,106.708,89.4879,270.6265,5.0406e-05,5.14e-06,0.0,0 STARLINK-3529,1 51724U 22016L   23251.91822044  .00000514  00000-0  50406-4 0  9992,2 51724  53.2175 106.7080 0001321  89.4879 270.6265 15.08837444 85621,6917.888,95.438,540.667,538.839,0.0
51724.0,STARLINK-3529,PAYLOAD,2023-09-09 13:56:05,15.08836313,0.0001293,53.217,103.7338,89.1367,270.9774,2.3099e-05,8e-07,0.0,0 STARLINK-3529,1 51724U 22016L   23252.58062345  .00000080  00000-0  23099-4 0  9992,2 51724  53.2170 103.7338 0001293  89.1367 270.9774 15.08836313 85729,6917.892,95.438,540.651,538.862,0.0
51724.0,STARLINK-3529,PAYLOAD,2023-09-09 20:17:38,15.08841032,0.0001298,53.2163,102.5447,89.1132,271.0009,4.6712e-05,4.56e-06,0.0,0 STARLINK-3529,1 51724U 22016L   23252.84557971  .00000456  00000-0  46712-4 0  9999,2 51724  53.2163 102.5447 0001298  89.1132 271.0009 15.08841032 86823,6917.877,95.437,540.64,538.844,0.0
51724.0,STARLINK-3529,PAYLOAD,2023-09-10 23:19:11,15.08839894,0.0001269,53.2163,97.4896,84.0703,276.0434,2.6209e-05,1.29e-06,0.0,0 STARLINK-3529,1 51724U 22016L   23253.97166182  .00000129  00000-0  26209-4 0  9990,2 51724  53.2163  97.4896 0001269  84.0703 276.0434 15.08839894 86997,6917.881,95.438,540.624,538.868,0.0
51724.0,STARLINK-3529,PAYLOAD,2023-09-11 07:16:07,15.08842763,0.0001297,53.2171,96.003,83.9015,276.2124,2.4015e-05,9.4e-07,0.0,0 STARLINK-3529,1 51724U 22016L   23254.30285965  .00000094  00000-0  24015-4 0  9993,2 51724  53.2171  96.0030 0001297  83.9015 276.2124 15.08842763 85981,6917.872,95.437,540.634,538.84,0.0
51724.0,STARLINK-3529,PAYLOAD,2023-09-11 23:09:58,15.08845681,0.0001364,53.2172,93.029,89.1948,270.9201,4.3061e-05,3.98e-06,0.0,0 STARLINK-3529,1 51724U 22016L   23254.96525678  .00000398  00000-0  43061-4 0  9992,2 51724  53.2172  93.0290 0001364  89.1948 270.9201 15.08845681 86086,6917.863,95.437,540.672,538.784,0.0
51724.0,STARLINK-3529,PAYLOAD,2023-09-12 18:14:36,15.08836802,0.0001407,53.2179,89.4589,92.1739,267.9414,2.0303e-06,-2.56e-06,0.0,0 STARLINK-3529,1 51724U 22016L   23255.76014379 -.00000256  00000-0  20303-5 0  9991,2 51724  53.2179  89.4589 0001407  92.1739 267.9414 15.08836802 87261,6917.89,95.438,540.729,538.782,0.0
